{"version": 0.6, "generator": "Overpass API 0.7.62.8 e802775f", "osm3s": {"timestamp_osm_base": "2025-12-09T13:05:45Z", "copyright": "The data included in this document is from www.openstreetmap.org. The data is made available under ODbL."}, "elements": [{"type": "node", "id": 3806958335, "lat": 47.1054167, "lon": 37.6508453, "tags": {"amenity": "clinic", "name": "\u0414\u0438\u0442\u044f\u0447\u0430 \u043f\u043e\u043b\u0456\u043a\u043b\u0456\u043d\u0456\u043a\u0430 \u21161", "name:ru": "\u0414\u0435\u0442\u0441\u043a\u0430\u044f \u043f\u043e\u043b\u0438\u043a\u043b\u0438\u043d\u0438\u043a\u0430 \u21161", "name:uk": "\u0414\u0438\u0442\u044f\u0447\u0430 \u043f\u043e\u043b\u0456\u043a\u043b\u0456\u043d\u0456\u043a\u0430 \u21161"}}, {"type": "node", "id": 3808225852, "lat": 47.1058334, "lon": 37.6508609, "tags": {"amenity": "clinic", "name": "\u041f\u043e\u043b\u0456\u043a\u043b\u0456\u043d\u0456\u043a\u0430 \u21161", "name:ru": "\u041f\u043e\u043b\u0438\u043a\u043b\u0438\u043d\u0438\u043a\u0430 \u21161", "name:uk": "\u041f\u043e\u043b\u0456\u043a\u043b\u0456\u043d\u0456\u043a\u0430 \u21161"}}, {"type": "node", "id": 4108489693, "lat": 47.1071524, "lon": 37.6315847, "tags": {"amenity": "clinic", "name": "\u041a\u043e\u0434 \u0437\u0434\u043e\u0440\u043e\u0432'\u044f", "name:ru": "\u041a\u043e\u0434 \u0437\u0434\u043e\u0440\u043e\u0432\u044c\u044f", "name:uk": "\u041a\u043e\u0434 \u0437\u0434\u043e\u0440\u043e\u0432'\u044f"}}, {"type": "node", "id": 4734612067, "lat": 47.1700066, "lon": 37.6918487, "tags": {"amenity": "clinic", "name": "\u041f\u043e\u043b\u0456\u043a\u043b\u0456\u043d\u0456\u043a\u0430", "name:ru": "\u041f\u043e\u043b\u0438\u043a\u043b\u0438\u043d\u0438\u043a\u0430", "name:uk": "\u041f\u043e\u043b\u0456\u043a\u043b\u0456\u043d\u0456\u043a\u0430"}}, {"type": "node", "id": 4734612099, "lat": 47.1210288, "lon": 37.689592, "tags": {"amenity": "clinic", "name": "\u0426\u0435\u043d\u0442\u0440 \u043f\u0435\u0440\u0432\u0438\u043d\u043d\u043e\u0457 \u0434\u043e\u043f\u043e\u043c\u043e\u0433\u0438", "name:ru": "\u0426\u0435\u043d\u0442\u0440 \u043f\u0435\u0440\u0432\u0438\u0447\u043d\u043e\u0439 \u043f\u043e\u043c\u043e\u0449\u0438", "name:uk": "\u0426\u0435\u043d\u0442\u0440 \u043f\u0435\u0440\u0432\u0438\u043d\u043d\u043e\u0457 \u0434\u043e\u043f\u043e\u043c\u043e\u0433\u0438", "ref": "8"}}, {"type": "node", "id": 4734612114, "lat": 47.1235716, "lon": 37.68277, "tags": {"amenity": "clinic", "name": "\u041c\u0435\u0434\u0456\u0444\u0430\u0441\u0442", "name:ru": "\u041c\u0435\u0434\u0438\u0444\u0430\u0441\u0442", "name:uk": "\u041c\u0435\u0434\u0456\u0444\u0430\u0441\u0442"}}, {"type": "node", "id": 4734613756, "lat": 47.1117019, "lon": 37.6390482, "tags": {"amenity": "clinic", "name": "\u0414\u0438\u0442\u044f\u0447\u0430 \u043f\u043e\u043b\u0456\u043a\u043b\u0456\u043d\u0456\u043a\u0430 \u21164", "name:ru": "\u0414\u0435\u0442\u0441\u043a\u0430\u044f \u043f\u043e\u043b\u0438\u043a\u043b\u0438\u043d\u0438\u043a\u0430 \u21164", "name:uk": "\u0414\u0438\u0442\u044f\u0447\u0430 \u043f\u043e\u043b\u0456\u043a\u043b\u0456\u043d\u0456\u043a\u0430 \u21164"}}, {"type": "node", "id": 4734613757, "lat": 47.111751, "lon": 37.6382166, "tags": {"amenity": "clinic", "name": "\u041f\u0456\u0434\u0441\u0442\u0430\u043d\u0446\u0456\u044f \u0448\u0432\u0438\u0434\u043a\u043e\u0457 \u0434\u043e\u043f\u043e\u043c\u043e\u0433\u0438", "name:en": "Ambulance substation", "name:ru": "\u041f\u043e\u0434\u0441\u0442\u0430\u043d\u0446\u0438\u044f \u0441\u043a\u043e\u0440\u043e\u0439 \u043f\u043e\u043c\u043e\u0449\u0438", "name:uk": "\u041f\u0456\u0434\u0441\u0442\u0430\u043d\u0446\u0456\u044f \u0448\u0432\u0438\u0434\u043a\u043e\u0457 \u0434\u043e\u043f\u043e\u043c\u043e\u0433\u0438"}}, {"type": "node", "id": 4734613778, "lat": 47.1096764, "lon": 37.6455619, "tags": {"amenity": "clinic", "name": "\u0416\u0456\u043d\u043e\u0447\u0430 \u043a\u043e\u043d\u0441\u0443\u043b\u044c\u0442\u0430\u0446\u0456\u044f", "name:ru": "\u0416\u0435\u043d\u0441\u043a\u0430\u044f \u043a\u043e\u043d\u0441\u0443\u043b\u044c\u0442\u0430\u0446\u0438\u044f", "name:uk": "\u0416\u0456\u043d\u043e\u0447\u0430 \u043a\u043e\u043d\u0441\u0443\u043b\u044c\u0442\u0430\u0446\u0456\u044f"}}, {"type": "node", "id": 4734613783, "lat": 47.1102183, "lon": 37.6321451, "tags": {"amenity": "clinic", "name": "\u0414\u0438\u0442\u044f\u0447\u0435 \u0456\u043d\u0444\u0435\u043a\u0446\u0456\u0439\u043d\u0435 \u0432\u0456\u0434\u0434\u0456\u043b\u0435\u043d\u043d\u044f", "name:ru": "\u0414\u0435\u0442\u0441\u043a\u043e\u0435 \u0438\u043d\u0444\u0435\u043a\u0446\u0438\u043e\u043d\u043d\u043e\u0435 \u043e\u0442\u0434\u0435\u043b\u0435\u043d\u0438\u0435", "name:uk": "\u0414\u0438\u0442\u044f\u0447\u0435 \u0456\u043d\u0444\u0435\u043a\u0446\u0456\u0439\u043d\u0435 \u0432\u0456\u0434\u0434\u0456\u043b\u0435\u043d\u043d\u044f"}}, {"type": "node", "id": 4734613784, "lat": 47.1100955, "lon": 37.6328086, "tags": {"amenity": "clinic", "name": "\u0406\u043d\u0444\u0435\u043a\u0446\u0456\u0439\u043d\u0435 \u0432\u0456\u0434\u0434\u0456\u043b\u0435\u043d\u043d\u044f", "name:ru": "\u0418\u043d\u0444\u0435\u043a\u0446\u0438\u043e\u043d\u043d\u043e\u0435 \u043e\u0442\u0434\u0435\u043b\u0435\u043d\u0438\u0435", "name:uk": "\u0406\u043d\u0444\u0435\u043a\u0446\u0456\u0439\u043d\u0435 \u0432\u0456\u0434\u0434\u0456\u043b\u0435\u043d\u043d\u044f"}}, {"type": "node", "id": 4734613785, "lat": 47.1108532, "lon": 37.6353195, "tags": {"amenity": "clinic", "name": "\u041f\u043e\u043b\u0456\u043a\u043b\u0456\u043d\u0456\u043a\u0430", "name:ru": "\u041f\u043e\u043b\u0438\u043a\u043b\u0438\u043d\u0438\u043a\u0430", "name:uk": "\u041f\u043e\u043b\u0456\u043a\u043b\u0456\u043d\u0456\u043a\u0430"}}, {"type": "node", "id": 4734613786, "lat": 47.1097855, "lon": 37.633678, "tags": {"amenity": "clinic", "name": "\u041b\u0456\u043a\u0430\u0440\u043d\u044f", "name:ru": "\u0411\u043e\u043b\u044c\u043d\u0438\u0446\u0430", "name:uk": "\u041b\u0456\u043a\u0430\u0440\u043d\u044f"}}, {"type": "node", "id": 4734613787, "lat": 47.1097229, "lon": 37.6346726, "tags": {"amenity": "clinic", "name": "\u041d\u0435\u0432\u0440\u043e\u043b\u043e\u0433\u0456\u044f", "name:ru": "\u041d\u0435\u0432\u0440\u043e\u043b\u043e\u0433\u0438\u044f", "name:uk": "\u041d\u0435\u0432\u0440\u043e\u043b\u043e\u0433\u0456\u044f"}}, {"type": "node", "id": 4734613859, "lat": 47.1084805, "lon": 37.632883, "tags": {"amenity": "clinic", "emergency": "yes", "name": "\u041c\u0435\u0434\u0456\u0444\u0430\u0441\u0442", "name:ru": "\u041c\u0435\u0434\u0438\u0444\u0430\u0441\u0442", "name:uk": "\u041c\u0435\u0434\u0456\u0444\u0430\u0441\u0442"}}, {"type": "node", "id": 4743870963, "lat": 47.1240711, "lon": 37.6815495, "tags": {"amenity": "clinic", "name": "\u041f\u043e\u043b\u0456\u043a\u043b\u0456\u043d\u0456\u043a\u0430", "name:ru": "\u041f\u043e\u043b\u0438\u043a\u043b\u0438\u043d\u0438\u043a\u0430", "name:uk": "\u041f\u043e\u043b\u0456\u043a\u043b\u0456\u043d\u0456\u043a\u0430"}}, {"type": "node", "id": 4810498737, "lat": 47.1101365, "lon": 37.6307355, "tags": {"amenity": "clinic", "name": "\u041f\u0440\u043e\u0442\u0438\u0442\u0443\u0431\u0435\u0440\u043a\u0443\u043b\u044c\u043e\u0437\u043d\u0438\u0439 \u0434\u0438\u0441\u043f\u0430\u043d\u0441\u0435\u0440", "name:be": "\u041f\u0440\u043e\u0446\u0456\u0442\u0443\u0431\u0435\u0440\u043a\u0443\u043b\u0435\u0437\u043d\u044b \u0434\u044b\u0441\u043f\u0430\u043d\u0441\u0435\u0440", "name:ru": "\u041f\u0440\u043e\u0442\u0438\u0432\u043e\u0442\u0443\u0431\u0435\u0440\u043a\u0443\u043b\u0451\u0437\u043d\u044b\u0439 \u0434\u0438\u0441\u043f\u0430\u043d\u0441\u0435\u0440", "name:uk": "\u041f\u0440\u043e\u0442\u0438\u0442\u0443\u0431\u0435\u0440\u043a\u0443\u043b\u044c\u043e\u0437\u043d\u0438\u0439 \u0434\u0438\u0441\u043f\u0430\u043d\u0441\u0435\u0440"}}, {"type": "node", "id": 4831049100, "lat": 47.108057, "lon": 37.6178808, "tags": {"amenity": "clinic", "name": "\u041f\u0456\u0434\u0441\u0442\u0430\u043d\u0446\u0456\u044f \u0448\u0432\u0438\u0434\u043a\u043e\u0457 \u0434\u043e\u043f\u043e\u043c\u043e\u0433\u0438", "name:en": "Ambulance substation", "name:ru": "\u041f\u043e\u0434\u0441\u0442\u0430\u043d\u0446\u0438\u044f \u0441\u043a\u043e\u0440\u043e\u0439 \u043f\u043e\u043c\u043e\u0449\u0438", "name:uk": "\u041f\u0456\u0434\u0441\u0442\u0430\u043d\u0446\u0456\u044f \u0448\u0432\u0438\u0434\u043a\u043e\u0457 \u0434\u043e\u043f\u043e\u043c\u043e\u0433\u0438"}}, {"type": "node", "id": 5815102003, "lat": 47.1090996, "lon": 37.6462587, "tags": {"amenity": "clinic", "healthcare": "clinic", "name": "\u041f\u043e\u043b\u043e\u0433\u043e\u0432\u0438\u0439 \u0431\u0443\u0434\u0438\u043d\u043e\u043a", "name:ru": "\u0420\u043e\u0434\u0438\u043b\u044c\u043d\u044b\u0439 \u0434\u043e\u043c", "name:uk": "\u041f\u043e\u043b\u043e\u0433\u043e\u0432\u0438\u0439 \u0431\u0443\u0434\u0438\u043d\u043e\u043a"}}, {"type": "node", "id": 6866674346, "lat": 47.1089944, "lon": 37.6327576, "tags": {"amenity": "clinic", "name": "\u0426\u0435\u043d\u0442\u0440 \u043f\u0435\u0440\u0432\u0438\u043d\u043d\u043e\u0457 \u0434\u043e\u043f\u043e\u043c\u043e\u0433\u0438", "name:ru": "\u0426\u0435\u043d\u0442\u0440 \u043f\u0435\u0440\u0432\u0438\u0447\u043d\u043e\u0439 \u043f\u043e\u043c\u043e\u0449\u0438", "name:uk": "\u0426\u0435\u043d\u0442\u0440 \u043f\u0435\u0440\u0432\u0438\u043d\u043d\u043e\u0457 \u0434\u043e\u043f\u043e\u043c\u043e\u0433\u0438", "ref": "5"}}, {"type": "node", "id": 6895513519, "lat": 47.1075339, "lon": 37.6388379, "tags": {"amenity": "clinic", "name": "\u041a\u043e\u0434 \u0437\u0434\u043e\u0440\u043e\u0432'\u044f", "name:ru": "\u041a\u043e\u0434 \u0437\u0434\u043e\u0440\u043e\u0432\u044c\u044f", "name:uk": "\u041a\u043e\u0434 \u0437\u0434\u043e\u0440\u043e\u0432'\u044f"}}, {"type": "node", "id": 7294140974, "lat": 47.1595345, "lon": 37.6127887, "tags": {"amenity": "clinic", "name": "\u0426\u0435\u043d\u0442\u0440 \u043f\u0435\u0440\u0432\u0438\u043d\u043d\u043e\u0457 \u0434\u043e\u043f\u043e\u043c\u043e\u0433\u0438", "name:ru": "\u0426\u0435\u043d\u0442\u0440 \u043f\u0435\u0440\u0432\u0438\u0447\u043d\u043e\u0439 \u043f\u043e\u043c\u043e\u0449\u0438", "name:uk": "\u0426\u0435\u043d\u0442\u0440 \u043f\u0435\u0440\u0432\u0438\u043d\u043d\u043e\u0457 \u0434\u043e\u043f\u043e\u043c\u043e\u0433\u0438", "ref": "10"}}, {"type": "node", "id": 7504250871, "lat": 47.0929721, "lon": 37.6993902, "tags": {"amenity": "clinic", "name": "\u0426\u0435\u043d\u0442\u0440 \u043f\u0435\u0440\u0432\u0438\u043d\u043d\u043e\u0457 \u0434\u043e\u043f\u043e\u043c\u043e\u0433\u0438", "name:ru": "\u0426\u0435\u043d\u0442\u0440 \u043f\u0435\u0440\u0432\u0438\u0447\u043d\u043e\u0439 \u043f\u043e\u043c\u043e\u0449\u0438", "name:uk": "\u0426\u0435\u043d\u0442\u0440 \u043f\u0435\u0440\u0432\u0438\u043d\u043d\u043e\u0457 \u0434\u043e\u043f\u043e\u043c\u043e\u0433\u0438", "ref": "5"}}, {"type": "node", "id": 8065787642, "lat": 47.1098118, "lon": 37.6332286, "tags": {"amenity": "clinic", "name": "\u041f\u0440\u0438\u0439\u043c\u0430\u043b\u044c\u043d\u0435 \u0432\u0456\u0434\u0434\u0456\u043b\u0435\u043d\u043d\u044f", "name:en": "The Receiving Department", "name:ru": "\u041f\u0440\u0438\u0451\u043c\u043d\u043e\u0435 \u043e\u0442\u0434\u0435\u043b\u0435\u043d\u0438\u0435", "name:uk": "\u041f\u0440\u0438\u0439\u043c\u0430\u043b\u044c\u043d\u0435 \u0432\u0456\u0434\u0434\u0456\u043b\u0435\u043d\u043d\u044f"}}]}