{"version": 0.6, "generator": "Overpass API 0.7.62.8 e802775f", "osm3s": {"timestamp_osm_base": "2025-12-09T10:36:15Z", "copyright": "The data included in this document is from www.openstreetmap.org. The data is made available under ODbL."}, "elements": [{"type": "node", "id": 2668389966, "lat": 38.3509729, "lon": 38.2816427}, {"type": "node", "id": 2668389970, "lat": 38.3472038, "lon": 38.2806368}, {"type": "node", "id": 2823482290, "lat": 38.3479072, "lon": 38.2800889}, {"type": "node", "id": 4151313489, "lat": 38.3490534, "lon": 38.322648, "tags": {"amenity": "hospital", "healthcare": "hospital", "name": "Hayat Hastanesi"}}, {"type": "node", "id": 4309872673, "lat": 38.3471527, "lon": 38.2808076}, {"type": "node", "id": 4309872686, "lat": 38.347724, "lon": 38.2832151}, {"type": "node", "id": 4309873578, "lat": 38.3491075, "lon": 38.2761524}, {"type": "node", "id": 4309873587, "lat": 38.3500946, "lon": 38.2788356}, {"type": "node", "id": 6830562220, "lat": 38.3378044, "lon": 38.2461159}, {"type": "node", "id": 6830562221, "lat": 38.3374612, "lon": 38.246128}, {"type": "node", "id": 6830562222, "lat": 38.337476, "lon": 38.2468345}, {"type": "node", "id": 6830562223, "lat": 38.3379185, "lon": 38.2465966}, {"type": "node", "id": 6830562225, "lat": 38.3379012, "lon": 38.2465054}, {"type": "node", "id": 6830562226, "lat": 38.3378549, "lon": 38.2464059}, {"type": "node", "id": 6830562227, "lat": 38.3378077, "lon": 38.2463156}, {"type": "node", "id": 6838774987, "lat": 38.3465615, "lon": 38.3288988}, {"type": "node", "id": 6838774988, "lat": 38.3463729, "lon": 38.3287876}, {"type": "node", "id": 6838774989, "lat": 38.3464432, "lon": 38.3285938}, {"type": "node", "id": 6838774990, "lat": 38.3466317, "lon": 38.3287049}, {"type": "node", "id": 7997090917, "lat": 38.3483902, "lon": 38.2794783}, {"type": "node", "id": 10128025490, "lat": 38.3478686, "lon": 38.3337453}, {"type": "node", "id": 10128025491, "lat": 38.348103, "lon": 38.3342382}, {"type": "node", "id": 10128025492, "lat": 38.3481924, "lon": 38.3351317}, {"type": "node", "id": 10128025500, "lat": 38.3458582, "lon": 38.3329842}, {"type": "node", "id": 10128025501, "lat": 38.3459959, "lon": 38.3330058}, {"type": "node", "id": 10128025502, "lat": 38.3460177, "lon": 38.3327655}, {"type": "node", "id": 10128025503, "lat": 38.3458606, "lon": 38.332747}, {"type": "node", "id": 10128025504, "lat": 38.3459089, "lon": 38.3322848}, {"type": "node", "id": 10128025505, "lat": 38.3459863, "lon": 38.3321801}, {"type": "node", "id": 10128025506, "lat": 38.3461047, "lon": 38.3322047}, {"type": "node", "id": 10128025507, "lat": 38.3464526, "lon": 38.3325591}, {"type": "node", "id": 10128025508, "lat": 38.3472307, "lon": 38.333585}, {"type": "node", "id": 10128025509, "lat": 38.3474917, "lon": 38.3339887}, {"type": "node", "id": 10128025510, "lat": 38.3475787, "lon": 38.3339702}, {"type": "node", "id": 10629365319, "lat": 38.3505645, "lon": 38.3301523}, {"type": "node", "id": 10629365320, "lat": 38.3506653, "lon": 38.3302173}, {"type": "node", "id": 10629365321, "lat": 38.3507739, "lon": 38.3299434}, {"type": "node", "id": 10629365322, "lat": 38.3506731, "lon": 38.3298784}, {"type": "node", "id": 10631224424, "lat": 38.3491768, "lon": 38.3228287}, {"type": "node", "id": 10631224425, "lat": 38.3490132, "lon": 38.322799}, {"type": "node", "id": 10631224426, "lat": 38.3489945, "lon": 38.3229661}, {"type": "node", "id": 10631224427, "lat": 38.3491581, "lon": 38.3229958}, {"type": "node", "id": 10632241411, "lat": 38.3463656, "lon": 38.3350578}, {"type": "node", "id": 10632241412, "lat": 38.346385, "lon": 38.3344385}, {"type": "node", "id": 10632241413, "lat": 38.3463173, "lon": 38.3343368}, {"type": "node", "id": 10632241414, "lat": 38.345766, "lon": 38.3343033}, {"type": "node", "id": 10632241416, "lat": 38.3458437, "lon": 38.3331814}, {"type": "node", "id": 10632570239, "lat": 38.3449719, "lon": 38.3297855}, {"type": "node", "id": 10632570241, "lat": 38.34491, "lon": 38.330013}, {"type": "node", "id": 10632570244, "lat": 38.3446732, "lon": 38.3299082}, {"type": "node", "id": 10632570247, "lat": 38.3447351, "lon": 38.3296807}, {"type": "node", "id": 10708243867, "lat": 38.5958356, "lon": 38.1798511, "tags": {"addr:district": "Malatya", "amenity": "hospital", "check_date": "2023-02-07", "fixme": "resurvey after recovery", "healthcare": "hospital", "name": "Yaz\u0131han Ilce Hastanesi", "note": "Do\u011fu\u015f Mah. \u00d6zg\u00fcrl\u00fck Cad.", "phone": "+904227514105", "source": "SafeGraph"}}, {"type": "node", "id": 10717831580, "lat": 38.3455248, "lon": 38.3332515, "tags": {"addr:district": "Malatya", "amenity": "clinic", "check_date": "2023-02-07", "fixme": "resurvey after recovery", "healthcare": "clinic", "name": "Imaj Sagl\u0131k Hizmetleri", "note": "Hastane Cad. No: 58/a", "phone": "+904223264404", "source": "SafeGraph"}}, {"type": "node", "id": 10717879307, "lat": 38.3818577, "lon": 38.3454153, "tags": {"addr:district": "Malatya", "amenity": "clinic", "check_date": "2023-02-07", "fixme": "resurvey after recovery", "healthcare": "clinic", "name": "Sagl\u0131k Ocag\u0131", "note": "Han\u0131m\u0131n\u00e7iftli\u011fi Mah. D\u00f6rt Yol K\u00fclt\u00fcr Cad.", "phone": "+904223110045", "source": "SafeGraph"}}, {"type": "node", "id": 10728263855, "lat": 38.3547724, "lon": 38.3126125, "tags": {"addr:district": "Malatya", "amenity": "clinic", "check_date": "2023-02-07", "fixme": "resurvey after recovery", "healthcare": "clinic", "name": "Abdulkadir Eris 2 Nolu Verem Savas Dispanseri", "note": "\u0130lyas Mah.", "phone": "+904223244801", "source": "SafeGraph"}}, {"type": "node", "id": 10732750416, "lat": 38.4175918, "lon": 38.3099074, "tags": {"addr:district": "Malatya", "amenity": "clinic", "check_date": "2023-02-07", "fixme": "resurvey after recovery", "healthcare": "clinic", "name": "Sa\u011fl\u0131k Oca\u011f\u0131", "note": "Yahya Kemal Mah.", "phone": "+904228434383", "source": "SafeGraph"}}, {"type": "node", "id": 10736901108, "lat": 38.360644, "lon": 38.2769868, "tags": {"addr:district": "Malatya", "amenity": "clinic", "check_date": "2023-02-07", "fixme": "resurvey after recovery", "healthcare": "clinic", "name": "Sa\u011fl\u0131k Oca\u011f\u0131", "note": "Seyran Mah. Vatan Cad.", "phone": "+904223362328", "source": "SafeGraph"}}, {"type": "node", "id": 10738622584, "lat": 38.3477331, "lon": 38.3047815, "tags": {"addr:district": "Malatya", "amenity": "hospital", "check_date": "2023-02-07", "fixme": "resurvey after recovery", "healthcare": "hospital", "name": "Gozde Hastanesi", "note": "Niyazi Mah.", "phone": "+904223232323", "source": "SafeGraph"}}, {"type": "node", "id": 10738634621, "lat": 38.3733229, "lon": 38.3639064, "tags": {"addr:district": "Malatya", "amenity": "clinic", "check_date": "2023-02-07", "fixme": "resurvey after recovery", "healthcare": "clinic", "name": "Bah\u00e7eba\u015f\u0131 Sa\u011fl\u0131k Oca\u011f\u0131", "note": "Orduzu Mah.", "phone": "+904223371053", "source": "SafeGraph"}}, {"type": "node", "id": 10738690993, "lat": 38.3426996, "lon": 38.3133227, "tags": {"addr:district": "Malatya", "amenity": "clinic", "check_date": "2023-02-07", "fixme": "resurvey after recovery", "healthcare": "clinic", "name": "Sa\u011fl\u0131k Oca\u011f\u0131", "note": "M\u00fccelli Cad.", "phone": "+904223252288", "source": "SafeGraph"}}, {"type": "node", "id": 10738742520, "lat": 38.3452507, "lon": 38.3161592, "tags": {"addr:district": "Malatya", "amenity": "clinic", "check_date": "2023-02-07", "fixme": "resurvey after recovery", "healthcare": "clinic", "name": "Sagl\u0131k Ocag\u0131", "note": "Hasan Varol Mah.", "phone": "+904222217842", "source": "SafeGraph"}}, {"type": "node", "id": 10738757650, "lat": 38.5954324, "lon": 38.1802207, "tags": {"addr:district": "Malatya", "amenity": "clinic", "check_date": "2023-02-07", "fixme": "resurvey after recovery", "healthcare": "clinic", "name": "Sagl\u0131k Ocag\u0131", "note": "Durucasu Beldesi Merkez Mah.", "phone": "+904227571318", "source": "SafeGraph"}}, {"type": "node", "id": 10739073414, "lat": 38.4101631, "lon": 38.3668864, "tags": {"addr:district": "Malatya", "amenity": "clinic", "check_date": "2023-02-07", "fixme": "resurvey after recovery", "healthcare": "clinic", "name": "Toplum Sagl\u0131g\u0131 Merkezi", "note": "Meydan Ba\u015f\u0131 Mah.", "phone": "+904228413002", "source": "SafeGraph"}}, {"type": "node", "id": 10739111729, "lat": 38.3546431, "lon": 38.3395735, "tags": {"addr:district": "Malatya", "amenity": "clinic", "check_date": "2023-02-07", "fixme": "resurvey after recovery", "healthcare": "clinic", "name": "Sagl\u0131k Ocag\u0131", "note": "Tando\u011fan Mah.", "phone": "+904223111175", "source": "SafeGraph"}}, {"type": "node", "id": 10742404877, "lat": 38.3527083, "lon": 38.306715, "tags": {"addr:district": "Malatya", "amenity": "clinic", "check_date": "2023-02-07", "fixme": "resurvey after recovery", "healthcare": "clinic", "name": "Sagl\u0131k Ocag\u0131", "note": "\u00c7avu\u015fo\u011flu Mah. Boztepe Cad.", "phone": "+904223211186", "source": "SafeGraph"}}, {"type": "node", "id": 10742404878, "lat": 38.349246, "lon": 38.3216898, "tags": {"addr:district": "Malatya", "amenity": "hospital", "check_date": "2023-02-07", "fixme": "resurvey after recovery", "healthcare": "hospital", "name": "Ozel EGM Hayat Hastanesi", "note": "K\u0131\u015fla Cad. No:37", "phone": "+904223253232", "source": "SafeGraph"}}, {"type": "node", "id": 10742429784, "lat": 38.3547255, "lon": 38.3130638, "tags": {"addr:district": "Malatya", "amenity": "clinic", "check_date": "2023-02-07", "fixme": "resurvey after recovery", "healthcare": "clinic", "name": "Yesilyurt Toplum Sagl\u0131g\u0131 Merkezi", "note": "Hamidiye Mah.", "phone": "+904224813047", "source": "SafeGraph"}}, {"type": "node", "id": 10742434129, "lat": 38.3552471, "lon": 38.3095716, "tags": {"addr:district": "Malatya", "amenity": "clinic", "check_date": "2023-02-07", "fixme": "resurvey after recovery", "healthcare": "clinic", "name": "Sagl\u0131k Ocag\u0131", "note": "Cemal G\u00fcrsel Mah.", "phone": "+904222217174", "source": "SafeGraph"}}, {"type": "node", "id": 10742440865, "lat": 38.351623, "lon": 38.3002107, "tags": {"addr:district": "Malatya", "amenity": "hospital", "check_date": "2023-02-07", "fixme": "resurvey after recovery", "healthcare": "hospital", "name": "Mavi Nokta Hastanesi", "note": "\u015eifa Mah.", "phone": "+904223244440", "source": "SafeGraph"}}, {"type": "node", "id": 10742450977, "lat": 38.3439871, "lon": 38.3123557, "tags": {"addr:district": "Malatya", "amenity": "clinic", "check_date": "2023-02-07", "fixme": "resurvey after recovery", "healthcare": "clinic", "name": "Verem Savas Dispanseri", "note": "Milli Egemenlik Cad. No: 82", "phone": "+904223232800", "source": "SafeGraph"}}, {"type": "node", "id": 10742450994, "lat": 38.4136897, "lon": 38.2012774, "tags": {"addr:district": "Malatya", "amenity": "clinic", "check_date": "2023-02-07", "fixme": "resurvey after recovery", "healthcare": "clinic", "name": "Aile Sagl\u0131g\u0131 Merkezi", "note": "Mevlana Cad.", "phone": "+904222951102", "source": "SafeGraph"}}, {"type": "node", "id": 10742461381, "lat": 38.3674937, "lon": 38.3200054, "tags": {"addr:district": "Malatya", "amenity": "clinic", "check_date": "2023-02-07", "fixme": "resurvey after recovery", "healthcare": "clinic", "name": "Tastepe Aile Sagl\u0131g\u0131 Merkezi", "note": "Ta\u015ftepe Mah. 1. Cad.", "phone": "+904223611232", "source": "SafeGraph"}}, {"type": "node", "id": 10742461450, "lat": 38.3491156, "lon": 38.3209415, "tags": {"addr:district": "Malatya", "amenity": "hospital", "check_date": "2023-02-07", "fixme": "resurvey after recovery", "healthcare": "hospital", "name": "Sevgi Hastanesi", "note": "Atat\u00fcrk Cad. No: 14", "phone": "+904223255555", "source": "SafeGraph"}}, {"type": "node", "id": 10742465315, "lat": 38.3505712, "lon": 38.323503, "tags": {"addr:district": "Malatya", "amenity": "clinic", "check_date": "2023-02-07", "fixme": "resurvey after recovery", "healthcare": "clinic", "name": "Modern T\u0131p Merkezi", "note": "Atat\u00fcrk Cad.", "phone": "+904223230536", "source": "SafeGraph"}}, {"type": "node", "id": 10742466054, "lat": 38.3685726, "lon": 38.2510565, "tags": {"addr:district": "Malatya", "amenity": "clinic", "check_date": "2023-02-07", "fixme": "resurvey after recovery", "healthcare": "clinic", "name": "Sagl\u0131k Ocag\u0131", "note": "Sa\u011fl\u0131k Sok.", "phone": "+904223992366", "source": "SafeGraph"}}, {"type": "node", "id": 10742470483, "lat": 38.4417054, "lon": 38.249002, "tags": {"addr:district": "Malatya", "amenity": "clinic", "check_date": "2023-02-07", "fixme": "resurvey after recovery", "healthcare": "clinic", "name": "Sagl\u0131k Ocag\u0131", "note": "Dilek Beldesi", "phone": "+904223982009", "source": "SafeGraph"}}, {"type": "node", "id": 12680910001, "lat": 38.3514348, "lon": 38.3005764, "tags": {"amenity": "hospital", "name": "\u00d6zel Divan Hastanesi"}}, {"type": "node", "id": 12681050801, "lat": 38.3504422, "lon": 38.3040578, "tags": {"amenity": "clinic", "name": "Do\u011fufertil T\u00fcp Bebek Merkezi"}}, {"type": "way", "id": 294930641, "nodes": [2668389966, 4309872686, 4309872673, 2668389970, 2823482290, 7997090917, 4309873578, 4309873587, 2668389966], "tags": {"addr:city": "Malatya", "addr:housename": "Malatya Devlet Hastanesi", "addr:postcode": "44000", "addr:street": "Malatya-Elaz\u0131\u011f yolu", "amenity": "hospital", "emergency": "yes", "healthcare": "hospital", "name": "Malatya E\u011fitim ve Ara\u015ft\u0131rma Hastanesi", "name:en": "Malatya Education and Research Hospital", "wikidata": "Q6016381", "wikipedia": "tr:Malatya Devlet Hastanesi"}}, {"type": "way", "id": 729080967, "nodes": [6830562220, 6830562221, 6830562222, 6830562223, 6830562225, 6830562226, 6830562227, 6830562220], "tags": {"addr:city": "Malatya", "amenity": "hospital", "building": "hospital", "healthcare": "hospital", "name": "Alman Hastanesi", "phone": "+904222382828"}}, {"type": "way", "id": 730017632, "nodes": [6838774987, 6838774988, 6838774989, 6838774990, 6838774987], "tags": {"addr:city": "Malatya", "amenity": "hospital", "building": "hospital", "emergency": "yes", "healthcare": "hospital", "name": "\u00d6zel M\u00fcjde Hastanesi"}}, {"type": "way", "id": 1106826053, "nodes": [10128025490, 10128025491, 10128025492, 10632241411, 10632241412, 10632241413, 10632241414, 10632241416, 10128025500, 10128025501, 10128025502, 10128025503, 10128025504, 10128025505, 10128025506, 10128025507, 10128025508, 10128025509, 10128025510, 10128025490], "tags": {"amenity": "hospital", "healthcare": "hospital", "name": "Battalgazi Devlet Hastanesi"}}, {"type": "way", "id": 1140763203, "nodes": [10629365319, 10629365320, 10629365321, 10629365322, 10629365319], "tags": {"addr:district": "Malatya", "amenity": "clinic", "building": "yes", "check_date": "2023-02-07", "fixme": "resurvey after recovery", "healthcare": "clinic", "name": "Sagl\u0131k Ocag\u0131", "note": "U\u00e7ba\u011flar Mah. G\u00fcndo\u011fdu Cad.", "phone": "+904223225502", "source": "SafeGraph"}}, {"type": "way", "id": 1141082082, "nodes": [10631224424, 10631224425, 10631224426, 10631224427, 10631224424], "tags": {"addr:district": "Malatya", "amenity": "hospital", "building": "hospital", "emergency": "yes", "healthcare": "hospital", "name": "G\u00f6zde K\u0131\u015fla Hastanesi", "phone": "+904223259292"}}, {"type": "way", "id": 1141331431, "nodes": [10632570239, 10632570241, 10632570244, 10632570247, 10632570239], "tags": {"addr:city": "Malatya", "amenity": "hospital", "building": "hospital", "emergency": "yes", "healthcare": "hospital", "name": "\u00d6zel Malatya Park Hastanesi", "phone": "+90 422 325 5050"}}]}