{"version": 0.6, "generator": "Overpass API 0.7.62.8 e802775f", "osm3s": {"timestamp_osm_base": "2025-12-09T08:08:59Z", "copyright": "The data included in this document is from www.openstreetmap.org. The data is made available under ODbL."}, "elements": [{"type": "node", "id": 6543031601, "lat": 38.8103057, "lon": 37.9408309}, {"type": "node", "id": 6543031602, "lat": 38.8103297, "lon": 37.940859}, {"type": "node", "id": 6543031603, "lat": 38.8103611, "lon": 37.9409181}, {"type": "node", "id": 6543031604, "lat": 38.8103663, "lon": 37.9409757}, {"type": "node", "id": 6543031605, "lat": 38.8098887, "lon": 37.9417683}, {"type": "node", "id": 6543031606, "lat": 38.8093422, "lon": 37.9411621}, {"type": "node", "id": 6543031607, "lat": 38.809825, "lon": 37.9403897}, {"type": "node", "id": 6543031608, "lat": 38.8098867, "lon": 37.9403897}, {"type": "node", "id": 6543031609, "lat": 38.8102378, "lon": 37.9407598}, {"type": "node", "id": 10725666563, "lat": 38.7317855, "lon": 37.6180937, "tags": {"addr:district": "Malatya", "amenity": "clinic", "check_date": "2023-02-07", "fixme": "resurvey after recover", "healthcare": "clinic", "name": "Sagl\u0131k Ocag\u0131", "note": "Ayval\u0131 Kasabas\u0131", "phone": "+904226757009", "source": "SafeGraph"}}, {"type": "node", "id": 10739083996, "lat": 38.8167062, "lon": 37.9308182, "tags": {"addr:district": "Malatya", "amenity": "clinic", "check_date": "2023-02-07", "fixme": "resurvey after recovery", "healthcare": "clinic", "name": "Merkez Toplum Sagl\u0131g\u0131 Merkezi", "note": "Merkez", "phone": "+904227131033", "source": "SafeGraph"}}, {"type": "node", "id": 10742435523, "lat": 38.8851474, "lon": 37.6703744, "tags": {"addr:district": "Malatya", "amenity": "clinic", "check_date": "2023-02-07", "fixme": "resurvey after recovery", "healthcare": "clinic", "name": "Kuluncak Toplum Sagl\u0131g\u0131 Merkezi", "note": "\u0130stiklal Mah.", "phone": "+904226812010", "source": "SafeGraph"}}, {"type": "node", "id": 10742459481, "lat": 38.9539316, "lon": 37.8917934, "tags": {"addr:district": "Malatya", "amenity": "clinic", "check_date": "2023-02-07", "fixme": "resurvey after recovery", "healthcare": "clinic", "name": "Sagl\u0131k Ocag\u0131", "note": "H\u00fcrriyet Mah.", "phone": "+904227436518", "source": "SafeGraph"}}, {"type": "node", "id": 10742477579, "lat": 38.77883, "lon": 37.8884085, "tags": {"addr:district": "Malatya", "amenity": "clinic", "check_date": "2023-02-07", "fixme": "resurvey after recovery", "healthcare": "clinic", "name": "Sagl\u0131k Ocag\u0131", "note": "\u00c7erme Mah.", "phone": "+904227234001", "source": "SafeGraph"}}, {"type": "way", "id": 696726885, "nodes": [6543031609, 6543031608, 6543031607, 6543031606, 6543031605, 6543031604, 6543031603, 6543031602, 6543031601, 6543031609], "tags": {"amenity": "hospital", "name": "Hekimhan \u0130l\u00e7e Devlet Hastanesi"}}]}