{"version": 0.6, "generator": "Overpass API 0.7.62.8 e802775f", "osm3s": {"timestamp_osm_base": "2025-12-09T13:03:44Z", "copyright": "The data included in this document is from www.openstreetmap.org. The data is made available under ODbL."}, "elements": [{"type": "node", "id": 3791230669, "lat": 38.332721, "lon": 38.4377657}, {"type": "node", "id": 3791230675, "lat": 38.3327561, "lon": 38.4378531}, {"type": "node", "id": 3791230677, "lat": 38.3327812, "lon": 38.4375282}, {"type": "node", "id": 3791230692, "lat": 38.3328946, "lon": 38.4377745}, {"type": "node", "id": 3791230695, "lat": 38.3329404, "lon": 38.4375939}, {"type": "node", "id": 3791230697, "lat": 38.3329482, "lon": 38.4379323}, {"type": "node", "id": 3791230702, "lat": 38.3329793, "lon": 38.4378094}, {"type": "node", "id": 8075067937, "lat": 38.3221479, "lon": 38.3078973}, {"type": "node", "id": 8075067938, "lat": 38.3221847, "lon": 38.3081161}, {"type": "node", "id": 8075067939, "lat": 38.3220697, "lon": 38.3081476}, {"type": "node", "id": 8075067940, "lat": 38.3220318, "lon": 38.307929}, {"type": "node", "id": 9139895267, "lat": 38.3220389, "lon": 38.3079708}, {"type": "node", "id": 9139895268, "lat": 38.3220175, "lon": 38.3079766}, {"type": "node", "id": 9139895269, "lat": 38.3220333, "lon": 38.3080703}, {"type": "node", "id": 9139895270, "lat": 38.3220556, "lon": 38.3080642}, {"type": "node", "id": 10629365319, "lat": 38.3505645, "lon": 38.3301523}, {"type": "node", "id": 10629365320, "lat": 38.3506653, "lon": 38.3302173}, {"type": "node", "id": 10629365321, "lat": 38.3507739, "lon": 38.3299434}, {"type": "node", "id": 10629365322, "lat": 38.3506731, "lon": 38.3298784}, {"type": "node", "id": 10709323920, "lat": 38.331485, "lon": 38.2156353, "tags": {"addr:district": "Malatya", "amenity": "clinic", "check_date": "2023-02-07", "fixme": "resurvey after recovery", "healthcare": "clinic", "name": "Sagl\u0131k Ocag\u0131", "note": "Fatih Mah. Kenan I\u015f\u0131k Cad.", "phone": "+904222381654", "source": "SafeGraph"}}, {"type": "node", "id": 10717831580, "lat": 38.3455248, "lon": 38.3332515, "tags": {"addr:district": "Malatya", "amenity": "clinic", "check_date": "2023-02-07", "fixme": "resurvey after recovery", "healthcare": "clinic", "name": "Imaj Sagl\u0131k Hizmetleri", "note": "Hastane Cad. No: 58/a", "phone": "+904223264404", "source": "SafeGraph"}}, {"type": "node", "id": 10728226898, "lat": 38.0328794, "lon": 38.2375025, "tags": {"addr:district": "Ad\u0131yaman", "amenity": "clinic", "check_date": "2023-02-07", "fixme": "resurvey after recovery", "healthcare": "clinic", "name": "Toplum Sagl\u0131g\u0131 Merkezi", "note": "Yunus Emre Mah. H\u00fck\u00fcmet Cad.", "phone": "+904164512012", "source": "SafeGraph"}}, {"type": "node", "id": 10728263855, "lat": 38.3547724, "lon": 38.3126125, "tags": {"addr:district": "Malatya", "amenity": "clinic", "check_date": "2023-02-07", "fixme": "resurvey after recovery", "healthcare": "clinic", "name": "Abdulkadir Eris 2 Nolu Verem Savas Dispanseri", "note": "\u0130lyas Mah.", "phone": "+904223244801", "source": "SafeGraph"}}, {"type": "node", "id": 10738661011, "lat": 38.2907008, "lon": 38.0477062, "tags": {"addr:district": "Malatya", "amenity": "clinic", "check_date": "2023-02-07", "fixme": "resurvey after recovery", "healthcare": "clinic", "name": "Sa\u011fl\u0131k Oca\u011f\u0131", "note": "Karap\u0131nar K\u00f6y\u00fc", "phone": "+904224224509", "source": "SafeGraph"}}, {"type": "node", "id": 10738690993, "lat": 38.3426996, "lon": 38.3133227, "tags": {"addr:district": "Malatya", "amenity": "clinic", "check_date": "2023-02-07", "fixme": "resurvey after recovery", "healthcare": "clinic", "name": "Sa\u011fl\u0131k Oca\u011f\u0131", "note": "M\u00fccelli Cad.", "phone": "+904223252288", "source": "SafeGraph"}}, {"type": "node", "id": 10738715622, "lat": 38.336586, "lon": 38.2853338, "tags": {"addr:district": "Malatya", "amenity": "clinic", "check_date": "2023-02-07", "fixme": "resurvey after recovery", "healthcare": "clinic", "name": "Sagl\u0131k Ocag\u0131", "note": "\u00d6zalper Mah. 3. Cad.", "phone": "+904222129360", "source": "SafeGraph"}}, {"type": "node", "id": 10738742520, "lat": 38.3452507, "lon": 38.3161592, "tags": {"addr:district": "Malatya", "amenity": "clinic", "check_date": "2023-02-07", "fixme": "resurvey after recovery", "healthcare": "clinic", "name": "Sagl\u0131k Ocag\u0131", "note": "Hasan Varol Mah.", "phone": "+904222217842", "source": "SafeGraph"}}, {"type": "node", "id": 10739111729, "lat": 38.3546431, "lon": 38.3395735, "tags": {"addr:district": "Malatya", "amenity": "clinic", "check_date": "2023-02-07", "fixme": "resurvey after recovery", "healthcare": "clinic", "name": "Sagl\u0131k Ocag\u0131", "note": "Tando\u011fan Mah.", "phone": "+904223111175", "source": "SafeGraph"}}, {"type": "node", "id": 10742389464, "lat": 37.9814603, "lon": 38.1132822, "tags": {"addr:district": "Malatya", "amenity": "clinic", "check_date": "2023-02-07", "fixme": "resurvey after recovery", "healthcare": "clinic", "name": "Kurucuova Sagl\u0131k Ocag\u0131", "note": "Kurucaova Kasabas\u0131", "phone": "+904225224008", "source": "SafeGraph"}}, {"type": "node", "id": 10742404877, "lat": 38.3527083, "lon": 38.306715, "tags": {"addr:district": "Malatya", "amenity": "clinic", "check_date": "2023-02-07", "fixme": "resurvey after recovery", "healthcare": "clinic", "name": "Sagl\u0131k Ocag\u0131", "note": "\u00c7avu\u015fo\u011flu Mah. Boztepe Cad.", "phone": "+904223211186", "source": "SafeGraph"}}, {"type": "node", "id": 10742427565, "lat": 38.2972595, "lon": 38.2961577, "tags": {"addr:district": "Malatya", "amenity": "clinic", "check_date": "2023-02-07", "fixme": "resurvey after recovery", "healthcare": "clinic", "name": "Sagl\u0131k Ocag\u0131", "note": "Konak Kasabas\u0131", "phone": "+904222992750", "source": "SafeGraph"}}, {"type": "node", "id": 10742429784, "lat": 38.3547255, "lon": 38.3130638, "tags": {"addr:district": "Malatya", "amenity": "clinic", "check_date": "2023-02-07", "fixme": "resurvey after recovery", "healthcare": "clinic", "name": "Yesilyurt Toplum Sagl\u0131g\u0131 Merkezi", "note": "Hamidiye Mah.", "phone": "+904224813047", "source": "SafeGraph"}}, {"type": "node", "id": 10742434126, "lat": 38.0328139, "lon": 38.2344858, "tags": {"addr:district": "Ad\u0131yaman", "amenity": "clinic", "check_date": "2023-02-07", "fixme": "resurvey after recovery", "healthcare": "clinic", "name": "Aile Sagl\u0131g\u0131 Merkezi", "note": "Yunus Emre Mah. H\u00fck\u00fcmet Cad.", "phone": "+904164512594", "source": "SafeGraph"}}, {"type": "node", "id": 10742434128, "lat": 38.2841786, "lon": 38.2608815, "tags": {"addr:district": "Malatya", "amenity": "clinic", "check_date": "2023-02-07", "fixme": "resurvey after recovery", "healthcare": "clinic", "name": "Sagl\u0131k Ocag\u0131", "note": "G\u00fcnd\u00fczbey Kasabas\u0131", "phone": "+904224871177", "source": "SafeGraph"}}, {"type": "node", "id": 10742434129, "lat": 38.3552471, "lon": 38.3095716, "tags": {"addr:district": "Malatya", "amenity": "clinic", "check_date": "2023-02-07", "fixme": "resurvey after recovery", "healthcare": "clinic", "name": "Sagl\u0131k Ocag\u0131", "note": "Cemal G\u00fcrsel Mah.", "phone": "+904222217174", "source": "SafeGraph"}}, {"type": "node", "id": 10742447027, "lat": 38.3368286, "lon": 38.2942722, "tags": {"addr:district": "Malatya", "amenity": "clinic", "check_date": "2023-02-07", "fixme": "resurvey after recovery", "healthcare": "clinic", "name": "Adafa Aile Sagl\u0131g\u0131 Merkezi", "note": "\u015eeyh Bayram Mah.", "phone": "+904222112404", "source": "SafeGraph"}}, {"type": "node", "id": 10742450977, "lat": 38.3439871, "lon": 38.3123557, "tags": {"addr:district": "Malatya", "amenity": "clinic", "check_date": "2023-02-07", "fixme": "resurvey after recovery", "healthcare": "clinic", "name": "Verem Savas Dispanseri", "note": "Milli Egemenlik Cad. No: 82", "phone": "+904223232800", "source": "SafeGraph"}}, {"type": "node", "id": 10742455124, "lat": 38.3139764, "lon": 38.2724525, "tags": {"addr:district": "Malatya", "amenity": "clinic", "check_date": "2023-02-07", "fixme": "resurvey after recovery", "healthcare": "clinic", "name": "Sagl\u0131k Ocag\u0131", "note": "Tecde Mah. Ye\u015filyurt Cad.", "phone": "+904223511487", "source": "SafeGraph"}}, {"type": "node", "id": 10742465315, "lat": 38.3505712, "lon": 38.323503, "tags": {"addr:district": "Malatya", "amenity": "clinic", "check_date": "2023-02-07", "fixme": "resurvey after recovery", "healthcare": "clinic", "name": "Modern T\u0131p Merkezi", "note": "Atat\u00fcrk Cad.", "phone": "+904223230536", "source": "SafeGraph"}}, {"type": "node", "id": 10742477580, "lat": 38.3456237, "lon": 38.5371409, "tags": {"addr:district": "Malatya", "amenity": "clinic", "check_date": "2023-02-07", "fixme": "resurvey after recovery", "healthcare": "clinic", "name": "Sagl\u0131k Ocag\u0131", "note": "\u0130spendere K\u00f6y\u00fc", "phone": "+904223941223", "source": "SafeGraph"}}, {"type": "node", "id": 10742478769, "lat": 38.2923197, "lon": 38.505979, "tags": {"addr:district": "Malatya", "amenity": "clinic", "check_date": "2023-02-07", "fixme": "resurvey after recovery", "healthcare": "clinic", "name": "Yayg\u0131n Aile Sagl\u0131g\u0131 Merkezi", "note": "Yayg\u0131n Kasabas\u0131", "phone": "+904223972208", "source": "SafeGraph"}}, {"type": "node", "id": 10742606878, "lat": 38.3343504, "lon": 38.2415376, "tags": {"addr:district": "Malatya", "amenity": "clinic", "check_date": "2023-02-07", "fixme": "resurvey after recovery", "healthcare": "clinic", "name": "Sagl\u0131k Ocag\u0131", "note": "Barbuzu Cad.", "phone": "+904224814843", "source": "SafeGraph"}}, {"type": "node", "id": 12681050801, "lat": 38.3504422, "lon": 38.3040578, "tags": {"amenity": "clinic", "name": "Do\u011fufertil T\u00fcp Bebek Merkezi"}}, {"type": "way", "id": 375777897, "nodes": [3791230677, 3791230669, 3791230675, 3791230697, 3791230702, 3791230692, 3791230695, 3791230677], "tags": {"amenity": "clinic", "building": "yes", "healthcare": "clinic", "name": "Aile Hekimli\u011fi"}}, {"type": "way", "id": 866345873, "nodes": [8075067937, 8075067938, 8075067939, 9139895270, 9139895269, 9139895268, 9139895267, 8075067940, 8075067937], "tags": {"amenity": "clinic", "building": "yes", "healthcare": "clinic", "name": "Toki 1 Nolu Aile Sa\u011fl\u0131\u011f\u0131 Merkezi"}}, {"type": "way", "id": 1140763203, "nodes": [10629365319, 10629365320, 10629365321, 10629365322, 10629365319], "tags": {"addr:district": "Malatya", "amenity": "clinic", "building": "yes", "check_date": "2023-02-07", "fixme": "resurvey after recovery", "healthcare": "clinic", "name": "Sagl\u0131k Ocag\u0131", "note": "U\u00e7ba\u011flar Mah. G\u00fcndo\u011fdu Cad.", "phone": "+904223225502", "source": "SafeGraph"}}]}