{"version": 0.6, "generator": "Overpass API 0.7.62.8 e802775f", "osm3s": {"timestamp_osm_base": "2025-12-09T13:03:44Z", "copyright": "The data included in this document is from www.openstreetmap.org. The data is made available under ODbL."}, "elements": [{"type": "node", "id": 10717879307, "lat": 38.3818577, "lon": 38.3454153, "tags": {"addr:district": "Malatya", "amenity": "clinic", "check_date": "2023-02-07", "fixme": "resurvey after recovery", "healthcare": "clinic", "name": "Sagl\u0131k Ocag\u0131", "note": "Han\u0131m\u0131n\u00e7iftli\u011fi Mah. D\u00f6rt Yol K\u00fclt\u00fcr Cad.", "phone": "+904223110045", "source": "SafeGraph"}}, {"type": "node", "id": 10732750416, "lat": 38.4175918, "lon": 38.3099074, "tags": {"addr:district": "Malatya", "amenity": "clinic", "check_date": "2023-02-07", "fixme": "resurvey after recovery", "healthcare": "clinic", "name": "Sa\u011fl\u0131k Oca\u011f\u0131", "note": "Yahya Kemal Mah.", "phone": "+904228434383", "source": "SafeGraph"}}, {"type": "node", "id": 10736901108, "lat": 38.360644, "lon": 38.2769868, "tags": {"addr:district": "Malatya", "amenity": "clinic", "check_date": "2023-02-07", "fixme": "resurvey after recovery", "healthcare": "clinic", "name": "Sa\u011fl\u0131k Oca\u011f\u0131", "note": "Seyran Mah. Vatan Cad.", "phone": "+904223362328", "source": "SafeGraph"}}, {"type": "node", "id": 10738634621, "lat": 38.3733229, "lon": 38.3639064, "tags": {"addr:district": "Malatya", "amenity": "clinic", "check_date": "2023-02-07", "fixme": "resurvey after recovery", "healthcare": "clinic", "name": "Bah\u00e7eba\u015f\u0131 Sa\u011fl\u0131k Oca\u011f\u0131", "note": "Orduzu Mah.", "phone": "+904223371053", "source": "SafeGraph"}}, {"type": "node", "id": 10738757650, "lat": 38.5954324, "lon": 38.1802207, "tags": {"addr:district": "Malatya", "amenity": "clinic", "check_date": "2023-02-07", "fixme": "resurvey after recovery", "healthcare": "clinic", "name": "Sagl\u0131k Ocag\u0131", "note": "Durucasu Beldesi Merkez Mah.", "phone": "+904227571318", "source": "SafeGraph"}}, {"type": "node", "id": 10739073414, "lat": 38.4101631, "lon": 38.3668864, "tags": {"addr:district": "Malatya", "amenity": "clinic", "check_date": "2023-02-07", "fixme": "resurvey after recovery", "healthcare": "clinic", "name": "Toplum Sagl\u0131g\u0131 Merkezi", "note": "Meydan Ba\u015f\u0131 Mah.", "phone": "+904228413002", "source": "SafeGraph"}}, {"type": "node", "id": 10742450994, "lat": 38.4136897, "lon": 38.2012774, "tags": {"addr:district": "Malatya", "amenity": "clinic", "check_date": "2023-02-07", "fixme": "resurvey after recovery", "healthcare": "clinic", "name": "Aile Sagl\u0131g\u0131 Merkezi", "note": "Mevlana Cad.", "phone": "+904222951102", "source": "SafeGraph"}}, {"type": "node", "id": 10742461381, "lat": 38.3674937, "lon": 38.3200054, "tags": {"addr:district": "Malatya", "amenity": "clinic", "check_date": "2023-02-07", "fixme": "resurvey after recovery", "healthcare": "clinic", "name": "Tastepe Aile Sagl\u0131g\u0131 Merkezi", "note": "Ta\u015ftepe Mah. 1. Cad.", "phone": "+904223611232", "source": "SafeGraph"}}, {"type": "node", "id": 10742466054, "lat": 38.3685726, "lon": 38.2510565, "tags": {"addr:district": "Malatya", "amenity": "clinic", "check_date": "2023-02-07", "fixme": "resurvey after recovery", "healthcare": "clinic", "name": "Sagl\u0131k Ocag\u0131", "note": "Sa\u011fl\u0131k Sok.", "phone": "+904223992366", "source": "SafeGraph"}}, {"type": "node", "id": 10742470483, "lat": 38.4417054, "lon": 38.249002, "tags": {"addr:district": "Malatya", "amenity": "clinic", "check_date": "2023-02-07", "fixme": "resurvey after recovery", "healthcare": "clinic", "name": "Sagl\u0131k Ocag\u0131", "note": "Dilek Beldesi", "phone": "+904223982009", "source": "SafeGraph"}}]}